H1 CPF 01  gfz 2022 05 04 00  6241 tandemx   
H2 1003001  6202 36605    2022 05 04 00 59 42 2022 05 09 00 00 42   120 1 1  0 0 0
H9
10 0 59707  38862.000000  0   -2107459.152   6537649.337    525083.357
10 0 59707  38982.000000  0   -1898423.166   6466737.972   1420400.179
10 0 59707  39102.000000  0   -1658463.978   6278835.106   2290703.905
10 0 59707  39222.000000  0   -1393796.349   5976727.954   3120666.653
10 0 59707  39342.000000  0   -1111004.226   5565330.377   3895676.665
10 0 59707  39462.000000  0    -816887.374   5051597.498   4602100.544
10 0 59707  39582.000000  0    -518305.031   4444398.684   5227527.086
10 0 59707  39702.000000  0    -222020.644   3754353.515   5760982.507
10 0 59707  39822.000000  0      65445.692   2993638.532   6193119.831
10 0 59707  39942.000000  0     337956.297   2175763.943   6516377.507
10 0 59707  40062.000000  0     589883.498   1315328.943   6725105.598
10 0 59707  40182.000000  0     816223.316    427757.590   6815658.814
10 0 59707  40302.000000  0    1012693.043   -470977.623   6786455.359
10 0 59707  40422.000000  0    1175811.489  -1364642.326   6638004.087
10 0 59707  40542.000000  0    1302960.728  -2237033.309   6372896.468
10 0 59707  40662.000000  0    1392428.281  -3072272.601   5995764.760
10 0 59707  40782.000000  0    1443428.724  -3855098.855   5513205.379
10 0 59707  40902.000000  0    1456104.656  -4571148.812   4933667.854
10 0 59707  41022.000000  0    1431508.144  -5207224.984   4267313.357
10 0 59707  41142.000000  0    1371562.008  -5751547.857   3525842.449
10 0 59707  41262.000000  0    1279001.479  -6193984.083   2722290.602
10 0 59707  41382.000000  0    1157297.094  -6526243.493   1870798.218
10 0 59707  41502.000000  0    1010560.530  -6742043.673    986359.501
10 0 59707  41622.000000  0     843436.298  -6837236.435     84552.725
10 0 59707  41742.000000  0     660980.584  -6809892.747   -818743.516
10 0 59707  41862.000000  0     468530.420  -6660339.721  -1707640.796
10 0 59707  41982.000000  0     271569.024  -6391151.235  -2566528.148
10 0 59707  42102.000000  0      75589.574  -6007095.344  -3380351.549
10 0 59707  42222.000000  0    -114039.582  -5515039.265  -4134881.214
10 0 59707  42342.000000  0    -292204.953  -4923813.214  -4816960.254
10 0 59707  42462.000000  0    -454169.638  -4244039.077  -5414728.902
10 0 59707  42582.000000  0    -595684.264  -3487928.814  -5917822.938
10 0 59707  42702.000000  0    -713084.489  -2669056.744  -6317543.176
10 0 59707  42822.000000  0    -803373.722  -1802110.969  -6606994.511
10 0 59707  42942.000000  0    -864289.729   -902629.287  -6781193.415
10 0 59707  43062.000000  0    -894354.283     13276.249  -6837145.096
10 0 59707  43182.000000  0    -892904.551    929202.633  -6773888.391
10 0 59707  43302.000000  0    -860106.438   1828741.739  -6592510.053
10 0 59707  43422.000000  0    -796949.916   2695766.581  -6296128.086
10 0 59707  43542.000000  0    -705225.780   3514714.487  -5889845.373
10 0 59707  43662.000000  0    -587484.369   4270864.480  -5380671.335
10 0 59707  43782.000000  0    -446976.466   4950602.396  -4777412.052
10 0 59707  43902.000000  0    -287578.048   5541671.352  -4090529.628
10 0 59707  44022.000000  0    -113699.523   6033401.458  -3331970.292
10 0 59707  44142.000000  0      69819.096   6416913.104  -2514964.092
10 0 59707  44262.000000  0     257824.772   6685290.001  -1653798.662
10 0 59707  44382.000000  0     444977.255   6833716.911   -763569.769
10 0 59707  44502.000000  0     625881.466   6859577.277    140086.745
10 0 59707  44622.000000  0     795223.155   6762507.667   1041276.203
10 0 59707  44742.000000  0     947903.816   6544406.265   1924133.182
10 0 59707  44862.000000  0    1079170.104   6209395.757   2773109.254
10 0 59707  44982.000000  0    1184735.938   5763743.174   3573254.183
10 0 59707  45102.000000  0    1260894.583   5215736.249   4310485.957
10 0 59707  45222.000000  0    1304618.993   4575521.794   4971843.668
10 0 59707  45342.000000  0    1313642.812   3854904.499   5545717.703
10 0 59707  45462.000000  0    1286525.964   3067119.380   6022047.624
10 0 59707  45582.000000  0    1222701.187   2226582.080   6392494.356
10 0 59707  45702.000000  0    1122500.515   1348619.190   6650580.875
10 0 59707  45822.000000  0     987162.009    449184.663   6791799.246
10 0 59707  45942.000000  0     818816.388   -455430.212   6813683.437
10 0 59707  46062.000000  0     620453.590  -1348890.885   6715851.238
10 0 59707  46182.000000  0     395869.524  -2215114.740   6500010.902
10 0 59707  46302.000000  0     149593.675  -3038560.928   6169933.576
10 0 59707  46422.000000  0    -113200.624  -3804511.184   5731389.474
10 0 59707  46542.000000  0    -386801.158  -4499333.500   5192050.963
10 0 59707  46662.000000  0    -665075.798  -5110728.490   4561366.486
10 0 59707  46782.000000  0    -941604.974  -5627956.845   3850402.452
10 0 59707  46902.000000  0   -1209824.309  -6042038.336   3071651.089
10 0 59707  47022.000000  0   -1463173.470  -6345916.681   2238811.130
10 0 59707  47142.000000  0   -1695248.165  -6534589.320   1366545.495
10 0 59707  47262.000000  0   -1899952.875  -6605197.024    470217.205
10 0 59707  47382.000000  0   -2071647.390  -6557069.374   -434389.549
10 0 59707  47502.000000  0   -2205284.779  -6391726.347  -1331356.184
10 0 59707  47622.000000  0   -2296537.698  -6112835.956  -2204918.210
10 0 59707  47742.000000  0   -2341909.971  -5726129.286  -3039749.660
10 0 59707  47862.000000  0   -2338830.250  -5239274.486  -3821237.319
10 0 59707  47982.000000  0   -2285725.308  -4661713.560  -4535737.680
10 0 59707  48102.000000  0   -2182071.809  -4004468.224  -5170811.552
10 0 59707  48222.000000  0   -2028426.222  -3279920.444  -5715433.645
10 0 59707  48342.000000  0   -1826432.532  -2501572.430  -6160175.184
10 0 59707  48462.000000  0   -1578807.150  -1683790.285  -6497356.741
10 0 59707  48582.000000  0   -1289302.099   -841537.607  -6721168.816
10 0 59707  48702.000000  0    -962648.411      9895.747  -6827761.136
10 0 59707  48822.000000  0    -604479.554    855165.586  -6815301.065
10 0 59707  48942.000000  0    -221235.715   1679142.607  -6684001.469
10 0 59707  49062.000000  0     179948.103   2467175.818  -6436117.474
10 0 59707  49182.000000  0     591370.770   3205347.897  -6075914.130
10 0 59707  49302.000000  0    1004909.510   3880719.106  -5609600.809
10 0 59707  49422.000000  0    1412175.591   4481553.757  -5045233.913
10 0 59707  49542.000000  0    1804680.453   4997528.322  -4392590.060
10 0 59707  49662.000000  0    2174009.450   5419916.729  -3663006.980
10 0 59707  49782.000000  0    2511998.973   5741746.984  -2869195.049
10 0 59707  49902.000000  0    2810914.040   5957927.399  -2025022.151
10 0 59707  50022.000000  0    3063622.316   6065338.135  -1145273.401
10 0 59707  50142.000000  0    3263759.290   6062884.449   -245389.647
10 0 59707  50262.000000  0    3405879.896   5951509.004    658809.267
10 0 59707  50382.000000  0    3485593.231   5734163.037   1551409.610
10 0 59707  50502.000000  0    3499677.358   5415738.017   2416691.733
10 0 59707  50622.000000  0    3446169.821   5002958.693   3239415.770
10 0 59707  50742.000000  0    3324432.654   4504237.909   4005097.845
10 0 59707  50862.000000  0    3135190.631   3929500.403   4700269.477
10 0 59707  50982.000000  0    2880538.032   3289978.300   5312718.966
10 0 59707  51102.000000  0    2563917.062   2597983.014   5831702.889
10 0 59707  51222.000000  0    2190071.921   1866663.034   6248129.749
10 0 59707  51342.000000  0    1764976.095   1109749.299   6554715.025
10 0 59707  51462.000000  0    1295733.824    341293.994   6746101.766
10 0 59707  51582.000000  0     790459.523   -424589.747   6818947.948
10 0 59707  51702.000000  0     258137.023  -1173986.527   6771982.781
10 0 59707  51822.000000  0    -291540.522  -1893431.872   6606027.471
10 0 59707  51942.000000  0    -848347.264  -2570154.157   6323981.162
10 0 59707  52062.000000  0   -1401713.834  -3192301.705   5930771.768
10 0 59707  52182.000000  0   -1940925.150  -3749151.139   5433274.832
10 0 59707  52302.000000  0   -2455327.688  -4231296.003   4840201.450
10 0 59707  52422.000000  0   -2934542.658  -4630812.265   4161952.637
10 0 59707  52542.000000  0   -3368678.736  -4941395.401   3410440.430
10 0 59707  52662.000000  0   -3748538.157  -5158465.864   2598879.251
10 0 59707  52782.000000  0   -4065812.236  -5279240.997   1741552.674
10 0 59707  52902.000000  0   -4313263.388  -5302771.664    853558.172
10 0 59707  53022.000000  0   -4484887.809  -5229941.424    -49465.187
10 0 59707  53142.000000  0   -4576054.877  -5063428.831   -951620.216
10 0 59707  53262.000000  0   -4583619.179  -4807633.117  -1837041.173
10 0 59707  53382.000000  0   -4506001.471  -4468564.292  -2690181.731
10 0 59707  53502.000000  0   -4343237.190  -4053701.542  -3496093.816
10 0 59707  53622.000000  0   -4096992.058  -3571825.135  -4240691.622
10 0 59707  53742.000000  0   -3770545.402  -3032826.446  -4910996.364
10 0 59707  53862.000000  0   -3368741.924  -2447500.268  -5495357.667
10 0 59707  53982.000000  0   -2897913.624  -1827325.204  -5983647.522
10 0 59707  54102.000000  0   -2365774.780  -1184236.984  -6367425.823
10 0 59707  54222.000000  0   -1781290.875   -530398.755  -6640075.206
10 0 59707  54342.000000  0   -1154525.180    122026.466  -6796902.887
10 0 59707  54462.000000  0    -496467.509    761096.580  -6835211.558
10 0 59707  54582.000000  0     181154.540   1375303.326  -6754340.993
10 0 59707  54702.000000  0     866078.403   1953773.560  -6555678.419
10 0 59707  54822.000000  0    1545723.474   2486457.979  -6242639.636
10 0 59707  54942.000000  0    2207417.590   2964303.821  -5820616.343
10 0 59707  55062.000000  0    2838629.687   3379408.878  -5296892.227
10 0 59707  55182.000000  0    3427204.536   3725153.721  -4680528.432
10 0 59707  55302.000000  0    3961597.606   3996312.250  -3982218.844
99
